JINJUSAT-1B             
1 63210U 25052A   26068.66363707  .00019955  00000+0  68430-3 0  9998
2 63210  97.4113 325.4613 0005550  82.1930 277.9941 15.30194857 54866
STARLINK-36410          
1 67337U 26003D   26068.45570974  .00036893  00000+0  13429-2 0  9999
2 67337  42.9974 228.7734 0000959 278.7996  81.2747 15.27594916  8788
